      2.10          N: GNSS NAV DATA                        RINEX VERSION / TYPE
fic2rin                                 04/10/2022 00:17:27 PGM / RUN BY / DATE
                                                            END OF HEADER
26 22  4  9 22  0  0.0 1.974073238671e-04 2.842170943040e-12 0.000000000000e+00
    6.200000000000e+01 3.003125000000e+01 5.090569185497e-09-3.906400552234e-01
    1.717358827591e-06 6.926248199306e-03 6.733462214470e-06 5.153729896545e+03
    5.976000000000e+05 9.313225746155e-08 1.331524481305e+00 7.264316082001e-08
    9.378704198504e-01 2.363437500000e+02 3.899323598251e-01-8.382134863848e-09
   -1.517920370333e-10 1.000000000000e+00 2.204000000000e+03 0.000000000000e+00
    2.400000000000e+00 0.000000000000e+00 6.984919309616e-09 6.200000000000e+01
    5.904000000000e+05 4.000000000000e+00
17 22  4  9 22  0  0.0 5.982867442071e-04 4.888534022029e-12 0.000000000000e+00
    4.900000000000e+01 7.071875000000e+01 4.072669643038e-09-2.288816840031e+00
    3.783032298088e-06 1.346892444417e-02 6.811693310738e-06 5.153790140152e+03
    5.976000000000e+05 1.527369022369e-07 2.495076448349e+00 1.415610313416e-07
    9.792956224049e-01 2.553125000000e+02-1.491036684303e+00-7.651747297417e-09
    6.857428496565e-11 1.000000000000e+00 2.204000000000e+03 0.000000000000e+00
    2.400000000000e+00 0.000000000000e+00-1.117587089539e-08 4.900000000000e+01
    5.904000000000e+05 4.000000000000e+00
25 22  4  9 22  0  0.0 3.098314628005e-04 5.002220859751e-12 0.000000000000e+00
    3.500000000000e+01 2.725000000000e+01 4.733768609035e-09 2.690724332726e-01
    1.275911927223e-06 1.056558045093e-02 7.469207048416e-06 5.153685586929e+03
    5.976000000000e+05-1.359730958939e-07 1.379547494136e+00 1.620501279831e-07
    9.570071686985e-01 2.380625000000e+02 9.983836794877e-01-8.217842306118e-09
   -2.207234797332e-10 1.000000000000e+00 2.204000000000e+03 0.000000000000e+00
    2.400000000000e+00 0.000000000000e+00 5.587935447693e-09 3.500000000000e+01
    5.904000000000e+05 4.000000000000e+00
18 22  4  9 22  0  0.0 1.994716003537e-04-9.322320693173e-12 0.000000000000e+00
    1.790000000000e+02-2.093750000000e+00 4.456614207299e-09 2.134195826097e+00
   -1.303851604462e-08 2.184208831750e-03 4.125759005547e-06 5.153611957550e+03
    5.976000000000e+05 2.980232238770e-08-2.783237588240e+00 1.192092895508e-07
    9.714151080013e-01 3.071875000000e+02 3.065485197786e+00-8.155339702633e-09
    6.643133856047e-11 1.000000000000e+00 2.204000000000e+03 0.000000000000e+00
    2.400000000000e+00 0.000000000000e+00-8.381903171539e-09 1.790000000000e+02
    5.904000000000e+05 4.000000000000e+00
23 22  4  9 22  0  0.0-1.371093094349e-05-2.955857780762e-12 0.000000000000e+00
    2.160000000000e+02-6.800000000000e+01 4.378753821244e-09 1.106461653369e+00
   -3.522261977196e-06 2.039213082753e-03 5.844980478287e-06 5.153709074020e+03
    5.976000000000e+05 2.980232238770e-08-1.783791151433e+00 3.725290298462e-09
    9.678223508971e-01 2.684687500000e+02 3.001568996128e+00-8.041763543159e-09
   -1.150047904111e-10 1.000000000000e+00 2.204000000000e+03 0.000000000000e+00
    2.400000000000e+00 0.000000000000e+00-8.381903171539e-09 4.720000000000e+02
    5.904000000000e+05 4.000000000000e+00
14 22  4  9 22  0  0.0-1.012771390378e-04-2.842170943040e-12 0.000000000000e+00
    1.090000000000e+02 3.650000000000e+01 4.731982820364e-09 6.020242641099e-01
    1.892447471619e-06 1.688008545898e-03 7.275491952896e-06 5.153654956818e+03
    5.976000000000e+05 1.490116119385e-08 1.424801933040e+00-1.117587089539e-08
    9.529327677605e-01 2.358750000000e+02 3.041358242264e+00-8.078907947515e-09
   -2.225092684042e-10 1.000000000000e+00 2.204000000000e+03 0.000000000000e+00
    2.400000000000e+00 0.000000000000e+00-7.450580596924e-09 8.770000000000e+02
    5.904000000000e+05 4.000000000000e+00
11 22  4  9 22  0  0.0-4.718033596873e-05 5.570655048359e-12 0.000000000000e+00
    2.100000000000e+02-3.125000000000e-01 4.604834666990e-09-2.148212728860e+00
   -4.470348358154e-08 3.051590174437e-04 3.585591912270e-06 5.153794176102e+03
    5.976000000000e+05-7.450580596924e-08-2.747758019768e+00-1.862645149231e-09
    9.627446982953e-01 3.092500000000e+02 2.681367975362e+00-8.267130073437e-09
   -7.857470152314e-12 1.000000000000e+00 2.204000000000e+03 0.000000000000e+00
    3.072000000000e+03 6.300000000000e+01-8.847564458847e-09 7.220000000000e+02
    5.904000000000e+05 4.000000000000e+00
28 22  4  9 22  0  0.0 3.727534785867e-04-3.069544618484e-12 0.000000000000e+00
    3.700000000000e+01 4.193750000000e+01 4.320179952836e-09-1.763168720037e+00
    2.538785338402e-06 1.664083905052e-02 7.761642336845e-06 5.153688438416e+03
    5.976000000000e+05-1.341104507446e-07 1.479011035409e+00 3.967434167862e-07
    9.685819901277e-01 2.355625000000e+02-1.282252022326e+00-7.837112161465e-09
   -2.250093725435e-10 1.000000000000e+00 2.204000000000e+03 0.000000000000e+00
    3.400000000000e+00 6.300000000000e+01-1.117587089539e-08 3.700000000000e+01
    5.904000000000e+05 4.000000000000e+00
 2 22  4 10  0  0  0.0-6.530159153044e-04-2.273736754432e-13 0.000000000000e+00
    7.400000000000e+01 1.493750000000e+01 4.545546483114e-09 3.052723178837e+00
    9.238719940186e-07 2.052856772207e-02 3.376975655556e-06 5.153643352509e+03
    0.000000000000e+00 3.855675458908e-07-3.001062668478e+00 7.078051567078e-08
    9.658514915686e-01 3.140625000000e+02-1.425712229426e+00-7.952116951876e-09
    8.071764792831e-11 1.000000000000e+00 2.205000000000e+03 0.000000000000e+00
    2.400000000000e+00 0.000000000000e+00-1.769512891769e-08 7.400000000000e+01
   -7.200000000000e+03 4.000000000000e+00
 1 22  4 10  0  0  0.0 3.886865451932e-04-8.753886504564e-12 0.000000000000e+00
    4.700000000000e+01-6.031250000000e+00 4.007666935414e-09 2.911266345883e+00
   -4.451721906662e-07 1.169696054421e-02 4.503875970840e-06 5.153668357849e+03
    0.000000000000e+00-3.725290298462e-09-2.910724244034e+00-2.104789018631e-07
    9.876215836603e-01 3.055937500000e+02 8.901950256131e-01-7.728179052535e-09
    7.607459738377e-11 1.000000000000e+00 2.205000000000e+03 0.000000000000e+00
    2.400000000000e+00 0.000000000000e+00 5.122274160385e-09 4.700000000000e+01
   -7.200000000000e+03 4.000000000000e+00
 5 22  4 10  0  0  0.0-7.773702964187e-05-1.364242052659e-12 0.000000000000e+00
    8.300000000000e+01-8.418750000000e+01 4.622692553700e-09-7.095870201876e-01
   -4.349276423454e-06 5.908645805903e-03 5.811452865601e-06 5.153700195312e+03
    0.000000000000e+00-3.166496753693e-08-1.917484458079e+00 1.210719347000e-07
    9.599497303994e-01 2.649375000000e+02 1.008078014816e+00-8.232485773220e-09
   -1.371485699313e-10 1.000000000000e+00 2.205000000000e+03 0.000000000000e+00
    2.400000000000e+00 0.000000000000e+00-1.117587089539e-08 8.300000000000e+01
   -7.200000000000e+03 4.000000000000e+00
 3 22  4 10  0  0  0.0-2.001505345106e-04-1.546140993014e-11 0.000000000000e+00
    5.400000000000e+01-6.721875000000e+01 4.276249551530e-09 1.788072150051e+00
   -3.647059202194e-06 4.024148685858e-03 6.621703505516e-06 5.153649297714e+03
    0.000000000000e+00-1.210719347000e-07-1.876357967304e+00-3.352761268616e-08
    9.729284206825e-01 2.581875000000e+02 9.411986828287e-01-7.938902115711e-09
   -5.893102614235e-11 1.000000000000e+00 2.205000000000e+03 0.000000000000e+00
    2.400000000000e+00 0.000000000000e+00 1.862645149231e-09 5.400000000000e+01
   -7.200000000000e+03 4.000000000000e+00
10 22  4 10  0  0  0.0-3.740484826267e-04-1.250555214938e-11 0.000000000000e+00
    4.300000000000e+01-7.100000000000e+01 4.386968449130e-09 8.657697971872e-01
   -3.516674041748e-06 7.553924340755e-03 5.813315510750e-06 5.153680822372e+03
    0.000000000000e+00-2.607703208923e-08-1.879128166534e+00 6.891787052155e-08
    9.727447059672e-01 2.751875000000e+02-2.493683683043e+00-8.086051102199e-09
   -1.517920370333e-10 1.000000000000e+00 2.205000000000e+03 0.000000000000e+00
    2.400000000000e+00 0.000000000000e+00 2.328306436539e-09 4.300000000000e+01
   -7.200000000000e+03 4.000000000000e+00
 9 22  4 10  0  0  0.0-3.447276540101e-04 2.387423592154e-12 0.000000000000e+00
    2.500000000000e+01-3.065625000000e+01 4.563047212089e-09-7.128057369344e-01
   -1.663342118263e-06 2.116133342497e-03 9.203329682350e-06 5.153590238571e+03
    0.000000000000e+00-7.078051567078e-08-8.480259540849e-01 6.332993507385e-08
    9.542604288229e-01 1.981562500000e+02 1.876689205604e+00-7.968903365383e-09
    1.389343586023e-10 1.000000000000e+00 2.205000000000e+03 0.000000000000e+00
    2.400000000000e+00 0.000000000000e+00 1.396983861923e-09 2.500000000000e+01
   -7.200000000000e+03 4.000000000000e+00
 7 22  4 10  0  0  0.0 3.196676261723e-04 1.250555214938e-12 0.000000000000e+00
    2.900000000000e+01 1.993750000000e+01 4.729125558490e-09 2.236706766169e+00
    8.530914783478e-07 1.585682574660e-02 7.579103112221e-06 5.153671905518e+03
    0.000000000000e+00-1.396983861923e-07 2.234746431073e-01-3.110617399216e-07
    9.512532178462e-01 2.285625000000e+02-2.279048669765e+00-7.923544333140e-09
    5.821671067396e-11 1.000000000000e+00 2.205000000000e+03 0.000000000000e+00
    2.400000000000e+00 0.000000000000e+00-1.117587089539e-08 2.900000000000e+01
   -7.200000000000e+03 4.000000000000e+00
 6 22  4 10  0  0  0.0 2.610958181322e-04 1.352873368887e-11 0.000000000000e+00
    1.000000000000e+02-3.406250000000e+00 4.141958243472e-09-3.113208113454e+00
   -1.862645149231e-08 2.661502803676e-03 4.310160875320e-06 5.153704008102e+03
    0.000000000000e+00-6.332993507385e-08-2.918995518486e+00 8.568167686462e-08
    9.869789910423e-01 3.118437500000e+02-8.870798995585e-01-7.973903573662e-09
    1.225051028293e-10 1.000000000000e+00 2.205000000000e+03 0.000000000000e+00
    3.400000000000e+00 0.000000000000e+00 3.725290298462e-09 1.000000000000e+02
   -7.200000000000e+03 4.000000000000e+00
